[
  {
    "COMMENT": "GENERATED VIA SPACETRACK.ORG API",
    "ORIGINATOR": "18 SPCS",
    "NORAD_CAT_ID": "43682",
    "OBJECT_NAME": "H-2A R/B",
    "OBJECT_TYPE": "ROCKET BODY",
    "CLASSIFICATION_TYPE": "U",
    "INTLDES": "18084L",
    "EPOCH": "2020-02-29 17:28:05",
    "EPOCH_MICROSECONDS": "596320",
    "MEAN_MOTION": "15.02790872",
    "ECCENTRICITY": "0.0057783",
    "INCLINATION": "98.9014",
    "RA_OF_ASC_NODE": "251.7052",
    "ARG_OF_PERICENTER": "129.6676",
    "MEAN_ANOMALY": "230.966",
    "EPHEMERIS_TYPE": "0",
    "ELEMENT_SET_NO": "999",
    "REV_AT_EPOCH": "7332",
    "BSTAR": "0.000044669",
    "MEAN_MOTION_DOT": "0.00000536",
    "MEAN_MOTION_DDOT": "0",
    "FILE": "2711774",
    "TLE_LINE0": "0 H-2A R/B",
    "TLE_LINE1": "1 43682U 18084L   20060.72784255 +.00000536 +00000-0 +44669-4 0  9999",
    "TLE_LINE2": "2 43682 098.9014 251.7052 0057783 129.6676 230.9660 15.02790872073327",
    "OBJECT_ID": "2018-084L",
    "OBJECT_NUMBER": "43682",
    "SEMIMAJOR_AXIS": "6936.432",
    "PERIOD": "95.822",
    "APOGEE": "598.378",
    "PERIGEE": "518.216",
    "DECAYED": "0"
  },
  {
    "COMMENT": "GENERATED VIA SPACETRACK.ORG API",
    "ORIGINATOR": "18 SPCS",
    "NORAD_CAT_ID": "43682",
    "OBJECT_NAME": "H-2A R/B",
    "OBJECT_TYPE": "ROCKET BODY",
    "CLASSIFICATION_TYPE": "U",
    "INTLDES": "18084L",
    "EPOCH": "2020-03-01 12:38:39",
    "EPOCH_MICROSECONDS": "322464",
    "MEAN_MOTION": "15.02791125",
    "ECCENTRICITY": "0.0057881",
    "INCLINATION": "98.9016",
    "RA_OF_ASC_NODE": "252.6226",
    "ARG_OF_PERICENTER": "127.0394",
    "MEAN_ANOMALY": "233.6142",
    "EPHEMERIS_TYPE": "0",
    "ELEMENT_SET_NO": "999",
    "REV_AT_EPOCH": "7344",
    "BSTAR": "0.000038466",
    "MEAN_MOTION_DOT": "0.0000045",
    "MEAN_MOTION_DDOT": "0",
    "FILE": "2712053",
    "TLE_LINE0": "0 H-2A R/B",
    "TLE_LINE1": "1 43682U 18084L   20061.52684401  .00000450  00000-0  38466-4 0  9993",
    "TLE_LINE2": "2 43682  98.9016 252.6226 0057881 127.0394 233.6142 15.02791125 73440",
    "OBJECT_ID": "2018-084L",
    "OBJECT_NUMBER": "43682",
    "SEMIMAJOR_AXIS": "6936.431",
    "PERIOD": "95.822",
    "APOGEE": "598.445",
    "PERIGEE": "518.148",
    "DECAYED": "0"
  },
  {
    "COMMENT": "GENERATED VIA SPACETRACK.ORG API",
    "ORIGINATOR": "18 SPCS",
    "NORAD_CAT_ID": "43682",
    "OBJECT_NAME": "H-2A R/B",
    "OBJECT_TYPE": "ROCKET BODY",
    "CLASSIFICATION_TYPE": "U",
    "INTLDES": "18084L",
    "EPOCH": "2020-03-01 17:26:17",
    "EPOCH_MICROSECONDS": "726784",
    "MEAN_MOTION": "15.02791247",
    "ECCENTRICITY": "0.0057884",
    "INCLINATION": "98.9017",
    "RA_OF_ASC_NODE": "252.8522",
    "ARG_OF_PERICENTER": "126.3971",
    "MEAN_ANOMALY": "234.2605",
    "EPHEMERIS_TYPE": "0",
    "ELEMENT_SET_NO": "999",
    "REV_AT_EPOCH": "7347",
    "BSTAR": "0.000037716",
    "MEAN_MOTION_DOT": "0.00000439",
    "MEAN_MOTION_DDOT": "0",
    "FILE": "2712328",
    "TLE_LINE0": "0 H-2A R/B",
    "TLE_LINE1": "1 43682U 18084L   20061.72659406 +.00000439 +00000-0 +37716-4 0  9996",
    "TLE_LINE2": "2 43682 098.9017 252.8522 0057884 126.3971 234.2605 15.02791247073477",
    "OBJECT_ID": "2018-084L",
    "OBJECT_NUMBER": "43682",
    "SEMIMAJOR_AXIS": "6936.431",
    "PERIOD": "95.822",
    "APOGEE": "598.447",
    "PERIGEE": "518.145",
    "DECAYED": "0"
  },
  {
    "COMMENT": "GENERATED VIA SPACETRACK.ORG API",
    "ORIGINATOR": "18 SPCS",
    "NORAD_CAT_ID": "43682",
    "OBJECT_NAME": "H-2A R/B",
    "OBJECT_TYPE": "ROCKET BODY",
    "CLASSIFICATION_TYPE": "U",
    "INTLDES": "18084L",
    "EPOCH": "2020-03-02 12:36:51",
    "EPOCH_MICROSECONDS": "380352",
    "MEAN_MOTION": "15.02791605",
    "ECCENTRICITY": "0.0058035",
    "INCLINATION": "98.902",
    "RA_OF_ASC_NODE": "253.7699",
    "ARG_OF_PERICENTER": "123.7936",
    "MEAN_ANOMALY": "236.8831",
    "EPHEMERIS_TYPE": "0",
    "ELEMENT_SET_NO": "999",
    "REV_AT_EPOCH": "7359",
    "BSTAR": "0.000034147",
    "MEAN_MOTION_DOT": "0.0000039",
    "MEAN_MOTION_DDOT": "0",
    "FILE": "2712687",
    "TLE_LINE0": "0 H-2A R/B",
    "TLE_LINE1": "1 43682U 18084L   20062.52559468 +.00000390 +00000-0 +34147-4 0  9993",
    "TLE_LINE2": "2 43682 098.9020 253.7699 0058035 123.7936 236.8831 15.02791605073597",
    "OBJECT_ID": "2018-084L",
    "OBJECT_NUMBER": "43682",
    "SEMIMAJOR_AXIS": "6936.430",
    "PERIOD": "95.822",
    "APOGEE": "598.550",
    "PERIGEE": "518.039",
    "DECAYED": "0"
  },
  {
    "COMMENT": "GENERATED VIA SPACETRACK.ORG API",
    "ORIGINATOR": "18 SPCS",
    "NORAD_CAT_ID": "43682",
    "OBJECT_NAME": "H-2A R/B",
    "OBJECT_TYPE": "ROCKET BODY",
    "CLASSIFICATION_TYPE": "U",
    "INTLDES": "18084L",
    "EPOCH": "2020-03-02 17:24:29",
    "EPOCH_MICROSECONDS": "774304",
    "MEAN_MOTION": "15.02791717",
    "ECCENTRICITY": "0.0058045",
    "INCLINATION": "98.9021",
    "RA_OF_ASC_NODE": "253.9994",
    "ARG_OF_PERICENTER": "123.1531",
    "MEAN_ANOMALY": "237.5275",
    "EPHEMERIS_TYPE": "0",
    "ELEMENT_SET_NO": "999",
    "REV_AT_EPOCH": "7362",
    "BSTAR": "0.000033512",
    "MEAN_MOTION_DOT": "0.00000381",
    "MEAN_MOTION_DDOT": "0",
    "FILE": "2712731",
    "TLE_LINE0": "0 H-2A R/B",
    "TLE_LINE1": "1 43682U 18084L   20062.72534461  .00000381  00000-0  33512-4 0  9996",
    "TLE_LINE2": "2 43682  98.9021 253.9994 0058045 123.1531 237.5275 15.02791717 73622",
    "OBJECT_ID": "2018-084L",
    "OBJECT_NUMBER": "43682",
    "SEMIMAJOR_AXIS": "6936.430",
    "PERIOD": "95.822",
    "APOGEE": "598.557",
    "PERIGEE": "518.032",
    "DECAYED": "0"
  },
  {
    "COMMENT": "GENERATED VIA SPACETRACK.ORG API",
    "ORIGINATOR": "18 SPCS",
    "NORAD_CAT_ID": "43682",
    "OBJECT_NAME": "H-2A R/B",
    "OBJECT_TYPE": "ROCKET BODY",
    "CLASSIFICATION_TYPE": "U",
    "INTLDES": "18084L",
    "EPOCH": "2020-03-03 12:35:03",
    "EPOCH_MICROSECONDS": "391584",
    "MEAN_MOTION": "15.02791908",
    "ECCENTRICITY": "0.0058173",
    "INCLINATION": "98.9024",
    "RA_OF_ASC_NODE": "254.917",
    "ARG_OF_PERICENTER": "120.559",
    "MEAN_ANOMALY": "240.1389",
    "EPHEMERIS_TYPE": "0",
    "ELEMENT_SET_NO": "999",
    "REV_AT_EPOCH": "7374",
    "BSTAR": "0.000028765",
    "MEAN_MOTION_DOT": "0.00000315",
    "MEAN_MOTION_DDOT": "0",
    "FILE": "2713018",
    "TLE_LINE0": "0 H-2A R/B",
    "TLE_LINE1": "1 43682U 18084L   20063.52434481 +.00000315 +00000-0 +28765-4 0  9997",
    "TLE_LINE2": "2 43682 098.9024 254.9170 0058173 120.5590 240.1389 15.02791908073741",
    "OBJECT_ID": "2018-084L",
    "OBJECT_NUMBER": "43682",
    "SEMIMAJOR_AXIS": "6936.429",
    "PERIOD": "95.822",
    "APOGEE": "598.645",
    "PERIGEE": "517.943",
    "DECAYED": "0"
  },
  {
    "COMMENT": "GENERATED VIA SPACETRACK.ORG API",
    "ORIGINATOR": "18 SPCS",
    "NORAD_CAT_ID": "43682",
    "OBJECT_NAME": "H-2A R/B",
    "OBJECT_TYPE": "ROCKET BODY",
    "CLASSIFICATION_TYPE": "U",
    "INTLDES": "18084L",
    "EPOCH": "2020-03-04 12:33:15",
    "EPOCH_MICROSECONDS": "321600",
    "MEAN_MOTION": "15.02792207",
    "ECCENTRICITY": "0.00584",
    "INCLINATION": "98.9028",
    "RA_OF_ASC_NODE": "256.0647",
    "ARG_OF_PERICENTER": "117.46",
    "MEAN_ANOMALY": "243.2575",
    "EPHEMERIS_TYPE": "0",
    "ELEMENT_SET_NO": "999",
    "REV_AT_EPOCH": "7389",
    "BSTAR": "0.000025535",
    "MEAN_MOTION_DOT": "0.0000027",
    "MEAN_MOTION_DDOT": "0",
    "FILE": "2713454",
    "TLE_LINE0": "0 H-2A R/B",
    "TLE_LINE1": "1 43682U 18084L   20064.52309400 +.00000270 +00000-0 +25535-4 0  9992",
    "TLE_LINE2": "2 43682 098.9028 256.0647 0058400 117.4600 243.2575 15.02792207073897",
    "OBJECT_ID": "2018-084L",
    "OBJECT_NUMBER": "43682",
    "SEMIMAJOR_AXIS": "6936.428",
    "PERIOD": "95.822",
    "APOGEE": "598.802",
    "PERIGEE": "517.784",
    "DECAYED": "0"
  },
  {
    "COMMENT": "GENERATED VIA SPACETRACK.ORG API",
    "ORIGINATOR": "18 SPCS",
    "NORAD_CAT_ID": "43682",
    "OBJECT_NAME": "H-2A R/B",
    "OBJECT_TYPE": "ROCKET BODY",
    "CLASSIFICATION_TYPE": "U",
    "INTLDES": "18084L",
    "EPOCH": "2020-03-04 18:56:46",
    "EPOCH_MICROSECONDS": "488480",
    "MEAN_MOTION": "15.02792405",
    "ECCENTRICITY": "0.0058391",
    "INCLINATION": "98.9029",
    "RA_OF_ASC_NODE": "256.3705",
    "ARG_OF_PERICENTER": "116.5807",
    "MEAN_ANOMALY": "244.1415",
    "EPHEMERIS_TYPE": "0",
    "ELEMENT_SET_NO": "999",
    "REV_AT_EPOCH": "7393",
    "BSTAR": "0.0000257",
    "MEAN_MOTION_DOT": "0.00000273",
    "MEAN_MOTION_DDOT": "0",
    "FILE": "2713584",
    "TLE_LINE0": "0 H-2A R/B",
    "TLE_LINE1": "1 43682U 18084L   20064.78942695 +.00000273 +00000-0 +25700-4 0  9996",
    "TLE_LINE2": "2 43682 098.9029 256.3705 0058391 116.5807 244.1415 15.02792405073932",
    "OBJECT_ID": "2018-084L",
    "OBJECT_NUMBER": "43682",
    "SEMIMAJOR_AXIS": "6936.427",
    "PERIOD": "95.822",
    "APOGEE": "598.795",
    "PERIGEE": "517.790",
    "DECAYED": "0"
  },
  {
    "COMMENT": "GENERATED VIA SPACETRACK.ORG API",
    "ORIGINATOR": "18 SPCS",
    "NORAD_CAT_ID": "43682",
    "OBJECT_NAME": "H-2A R/B",
    "OBJECT_TYPE": "ROCKET BODY",
    "CLASSIFICATION_TYPE": "U",
    "INTLDES": "18084L",
    "EPOCH": "2020-03-05 06:07:56",
    "EPOCH_MICROSECONDS": "83872",
    "MEAN_MOTION": "15.0279224",
    "ECCENTRICITY": "0.0058525",
    "INCLINATION": "98.9031",
    "RA_OF_ASC_NODE": "256.906",
    "ARG_OF_PERICENTER": "115.1567",
    "MEAN_ANOMALY": "245.5752",
    "EPHEMERIS_TYPE": "0",
    "ELEMENT_SET_NO": "999",
    "REV_AT_EPOCH": "7400",
    "BSTAR": "0.000021468",
    "MEAN_MOTION_DOT": "0.00000214",
    "MEAN_MOTION_DDOT": "0",
    "FILE": "2713693",
    "TLE_LINE0": "0 H-2A R/B",
    "TLE_LINE1": "1 43682U 18084L   20065.25551023 +.00000214 +00000-0 +21468-4 0  9992",
    "TLE_LINE2": "2 43682 098.9031 256.9060 0058525 115.1567 245.5752 15.02792240074007",
    "OBJECT_ID": "2018-084L",
    "OBJECT_NUMBER": "43682",
    "SEMIMAJOR_AXIS": "6936.428",
    "PERIOD": "95.822",
    "APOGEE": "598.888",
    "PERIGEE": "517.697",
    "DECAYED": "0"
  }
]